NORAD_CAT_ID,OBJECT_NAME,OBJECT_TYPE,EPOCH,MEAN_MOTION,ECCENTRICITY,INCLINATION,RA_OF_ASC_NODE,ARG_OF_PERICENTER,MEAN_ANOMALY,BSTAR,MEAN_MOTION_DOT,MEAN_MOTION_DDOT,TLE_LINE0,TLE_LINE1,TLE_LINE2,SEMIMAJOR_AXIS,PERIOD,APOGEE,PERIGEE,DECAYED
53922.0,STARLINK-5002,PAYLOAD,2023-09-04 08:46:24,15.08839313,0.0001825,53.216,111.8972,83.0282,277.0918,0.00011049,1.471e-05,0.0,0 STARLINK-5002,1 53922U 22119AN  23247.36556411  .00001471  00000-0  11049-3 0  9996,2 53922  53.2160 111.8972 0001825  83.0282 277.0918 15.08839313 53348,6917.882,95.438,541.01,538.485,0.0
53922.0,STARLINK-5002,PAYLOAD,2023-09-05 00:40:16,15.08835672,0.0001416,53.216,108.9235,86.7137,273.4017,6.3209e-05,7.18e-06,0.0,0 STARLINK-5002,1 53922U 22119AN  23248.02796738  .00000718  00000-0  63209-4 0  9997,2 53922  53.2160 108.9235 0001416  86.7137 273.4017 15.08835672 53021,6917.894,95.438,540.738,538.779,0.0
53922.0,STARLINK-5002,PAYLOAD,2023-09-06 00:31:03,15.08840958,0.0001531,53.2181,104.4617,95.6148,264.5019,3.3791e-05,2.5e-06,0.0,0 STARLINK-5002,1 53922U 22119AN  23249.02156515  .00000250  00000-0  33791-4 0  9995,2 53922  53.2181 104.4617 0001531  95.6148 264.5019 15.08840958 53596,6917.877,95.437,540.802,538.683,0.0
53922.0,STARLINK-5002,PAYLOAD,2023-09-06 21:11:03,15.08841386,0.0001381,53.2173,100.5981,90.776,269.339,9.2061e-05,1.178e-05,0.0,0 STARLINK-5002,1 53922U 22119AN  23249.88268344  .00001178  00000-0  92061-4 0  9998,2 53922  53.2173 100.5981 0001381  90.7760 269.3390 15.08841386 53723,6917.876,95.437,540.697,538.786,0.0
53922.0,STARLINK-5002,PAYLOAD,2023-09-07 00:21:49,15.08844109,0.0001345,53.2171,100.0027,89.8221,270.2925,8.8105e-05,1.115e-05,0.0,0 STARLINK-5002,1 53922U 22119AN  23250.01516160  .00001115  00000-0  88105-4 0  9992,2 53922  53.2171 100.0027 0001345  89.8221 270.2925 15.08844109 53325,6917.868,95.437,540.663,538.802,0.0
53922.0,STARLINK-5002,PAYLOAD,2023-09-07 13:04:55,15.08837682,0.0001411,53.214,97.6242,91.0312,269.0841,5.2451e-05,5.47e-06,0.0,0 STARLINK-5002,1 53922U 22119AN  23250.54508713  .00000547  00000-0  52451-4 0  9998,2 53922  53.2140  97.6242 0001411  91.0312 269.0841 15.08837682 53827,6917.887,95.438,540.729,538.776,0.0
53922.0,STARLINK-5002,PAYLOAD,2023-09-07 14:40:18,15.08837533,0.0001276,53.2146,97.3261,87.6132,272.5006,1.4603e-05,-5.5e-07,0.0,0 STARLINK-5002,1 53922U 22119AN  23250.61132866 -.00000055  00000-0  14603-4 0  9990,2 53922  53.2146  97.3261 0001276  87.6132 272.5006 15.08837533 53839,6917.888,95.438,540.636,538.87,0.0
53922.0,STARLINK-5002,PAYLOAD,2023-09-08 00:12:37,15.0882248,0.0001577,53.2156,95.5426,95.8218,264.2954,0.00025326,3.743e-05,0.0,0 STARLINK-5002,1 53922U 22119AN  23251.00877260  .00003743  00000-0  25326-3 0  9997,2 53922  53.2156  95.5426 0001577  95.8218 264.2954 15.08822480 53478,6917.934,95.439,540.89,538.708,0.0
53922.0,STARLINK-5002,PAYLOAD,2023-09-08 19:17:15,15.08843882,0.0001486,53.2164,91.9728,97.2733,262.8428,-6.8831e-05,-1.383e-05,0.0,0 STARLINK-5002,1 53922U 22119AN  23251.80364909 -.00001383  00000-0 -68831-4 0  9995,2 53922  53.2164  91.9728 0001486  97.2733 262.8428 15.08843882 53591,6917.869,95.437,540.762,538.706,0.0
53922.0,STARLINK-5002,PAYLOAD,2023-09-08 20:52:38,15.08852402,0.0001078,53.2166,91.6765,91.2871,268.8245,-0.00013168,-2.384e-05,0.0,0 STARLINK-5002,1 53922U 22119AN  23251.86988629 -.00002384  00000-0 -13168-3 0  9996,2 53922  53.2166  91.6765 0001078  91.2871 268.8245 15.08852402 54025,6917.842,95.437,540.453,538.962,0.0
53922.0,STARLINK-5002,PAYLOAD,2023-09-09 00:03:24,15.08857778,0.0001207,53.2164,91.082,95.0205,265.0925,-0.00020851,-3.606e-05,0.0,0 STARLINK-5002,1 53922U 22119AN  23252.00236452 -.00003606  00000-0 -20851-3 0  9998,2 53922  53.2164  91.0820 0001207  95.0205 265.0925 15.08857778 53626,6917.826,95.436,540.526,538.856,0.0
53922.0,STARLINK-5002,PAYLOAD,2023-09-09 12:46:30,15.088335,0.0001175,53.2163,88.7033,90.0211,270.0916,6.1941e-05,6.98e-06,0.0,0 STARLINK-5002,1 53922U 22119AN  23252.53229315  .00000698  00000-0  61941-4 0  9998,2 53922  53.2163  88.7033 0001175  90.0211 270.0916 15.08833500 54129,6917.9,95.438,540.578,538.952,0.0
53922.0,STARLINK-5002,PAYLOAD,2023-09-09 19:08:02,15.08837903,0.0001189,53.216,87.5138,88.7081,271.4047,7.4325e-05,8.95e-06,0.0,0 STARLINK-5002,1 53922U 22119AN  23252.79725099  .00000895  00000-0  74325-4 0  9995,2 53922  53.2160  87.5138 0001189  88.7081 271.4047 15.08837903 53741,6917.887,95.438,540.574,538.929,0.0
53922.0,STARLINK-5002,PAYLOAD,2023-09-10 12:37:16,15.08840418,0.000127,53.2166,84.2429,88.7035,271.4102,0.00010706,1.416e-05,0.0,0 STARLINK-5002,1 53922U 22119AN  23253.52588949  .00001416  00000-0  10706-3 0  9990,2 53922  53.2166  84.2429 0001270  88.7035 271.4102 15.08840418 54270,6917.879,95.438,540.623,538.866,0.0
53922.0,STARLINK-5002,PAYLOAD,2023-09-11 06:06:31,15.08840965,0.0001163,53.2165,80.971,88.534,271.5785,7.7535e-05,9.46e-06,0.0,0 STARLINK-5002,1 53922U 22119AN  23254.25452990  .00000946  00000-0  77535-4 0  9998,2 53922  53.2165  80.9710 0001163  88.5340 271.5785 15.08840965 53963,6917.877,95.437,540.547,538.938,0.0
53922.0,STARLINK-5002,PAYLOAD,2023-09-11 12:28:03,15.08846409,0.0001266,53.2163,79.7824,95.0951,265.0186,-2.7409e-05,-7.24e-06,0.0,0 STARLINK-5002,1 53922U 22119AN  23254.51948813 -.00000724  00000-0 -27409-4 0  9992,2 53922  53.2163  79.7824 0001266  95.0951 265.0186 15.08846409 54422,6917.861,95.437,540.602,538.85,0.0
53922.0,STARLINK-5002,PAYLOAD,2023-09-12 12:18:50,15.08840795,0.0001231,53.2167,75.3223,85.1092,275.0041,9.0293e-05,1.149e-05,0.0,0 STARLINK-5002,1 53922U 22119AN  23255.51309002  .00001149  00000-0  90293-4 0  9995,2 53922  53.2167  75.3223 0001231  85.1092 275.0041 15.08840795 54578,6917.878,95.438,540.595,538.891,0.0
53922.0,STARLINK-5002,PAYLOAD,2023-09-12 17:05:00,15.0884923,0.0001233,53.2167,74.4302,82.6496,277.4637,-4.3279e-06,-3.57e-06,0.0,0 STARLINK-5002,1 53922U 22119AN  23255.71180611 -.00000357  00000-0 -43279-5 0  9995,2 53922  53.2167  74.4302 0001233  82.6496 277.4637 15.08849230 54185,6917.852,95.437,540.57,538.864,0.0
53922.0,STARLINK-5002,PAYLOAD,2023-09-12 18:40:23,15.08847992,0.0001207,53.2169,74.1324,84.7307,275.3822,7.7699e-05,9.49e-06,0.0,0 STARLINK-5002,1 53922U 22119AN  23255.77804529  .00000949  00000-0  77699-4 0  9999,2 53922  53.2169  74.1324 0001207  84.7307 275.3822 15.08847992 54617,6917.856,95.437,540.556,538.886,0.0
53922.0,STARLINK-5002,PAYLOAD,2023-09-13 12:09:37,15.08841604,0.0001291,53.2176,70.861,86.3377,273.7762,8.6647e-05,1.091e-05,0.0,0 STARLINK-5002,1 53922U 22119AN  23256.50668800  .00001091  00000-0  86647-4 0  9993,2 53922  53.2176  70.8610 0001291  86.3377 273.7762 15.08841604 54725,6917.875,95.437,540.634,538.847,0.0
53922.0,STARLINK-5002,PAYLOAD,2023-09-13 18:31:10,15.08846439,0.0001174,53.2178,69.6706,88.235,271.8777,7.2323e-05,8.64e-06,0.0,0 STARLINK-5002,1 53922U 22119AN  23256.77164484  .00000864  00000-0  72323-4 0  9994,2 53922  53.2178  69.6706 0001174  88.2350 271.8777 15.08846439 54345,6917.861,95.437,540.538,538.914,0.0
53922.0,STARLINK-5002,PAYLOAD,2023-09-14 10:25:02,15.08835837,0.0001239,53.2181,66.6997,89.4736,270.6398,-1.2513e-05,-4.87e-06,0.0,0 STARLINK-5002,1 53922U 22119AN  23257.43405549 -.00000487  00000-0 -12513-4 0  9996,2 53922  53.2181  66.6997 0001239  89.4736 270.6398 15.08835837 54448,6917.893,95.438,540.615,538.901,0.0
53922.0,STARLINK-5002,PAYLOAD,2023-09-14 12:00:25,15.08833911,0.0001244,53.2177,66.4002,85.3108,274.8026,-4.0255e-05,-9.28e-06,0.0,0 STARLINK-5002,1 53922U 22119AN  23257.50029844 -.00000928  00000-0 -40255-4 0  9998,2 53922  53.2177  66.4002 0001244  85.3108 274.8026 15.08833911 54874,6917.899,95.438,540.625,538.903,0.0
53922.0,STARLINK-5002,PAYLOAD,2023-09-14 18:21:58,15.08830013,0.0001221,53.2181,65.2115,79.7088,280.4042,-7.0053e-05,-1.402e-05,0.0,0 STARLINK-5002,1 53922U 22119AN  23257.76526301 -.00001402  00000-0 -70053-4 0  9993,2 53922  53.2181  65.2115 0001221  79.7088 280.4042 15.08830013 54499,6917.911,95.438,540.621,538.931,0.0
53922.0,STARLINK-5002,PAYLOAD,2023-09-15 10:15:49,15.08836234,0.0001107,53.218,62.2367,75.5239,284.5876,3.6797e-06,-2.29e-06,0.0,0 STARLINK-5002,1 53922U 22119AN  23258.42766012 -.00000229  00000-0  36797-5 0  9995,2 53922  53.2180  62.2367 0001107  75.5239 284.5876 15.08836234 54591,6917.892,95.438,540.523,538.991,0.0
53922.0,STARLINK-5002,PAYLOAD,2023-09-15 11:51:12,15.08837158,0.0001121,53.2181,61.9397,77.703,282.4088,1.5123e-05,-4.7e-07,0.0,0 STARLINK-5002,1 53922U 22119AN  23258.49389907 -.00000047  00000-0  15123-4 0  9993,2 53922  53.2181  61.9397 0001121  77.7030 282.4088 15.08837158 55027,6917.889,95.438,540.53,538.979,0.0
53922.0,STARLINK-5002,PAYLOAD,2023-09-15 18:12:44,15.08843481,0.0001133,53.2186,60.7516,90.7938,269.3184,8.952e-05,1.137e-05,0.0,0 STARLINK-5002,1 53922U 22119AN  23258.75885336  .00001137  00000-0  89520-4 0  9991,2 53922  53.2186  60.7516 0001133  90.7938 269.3184 15.08843481 54641,6917.87,95.437,540.519,538.951,0.0
53922.0,STARLINK-5002,PAYLOAD,2023-09-16 10:06:36,15.08834048,0.0001168,53.2185,57.7782,81.6227,278.4897,0.00018133,2.599e-05,0.0,0 STARLINK-5002,1 53922U 22119AN  23259.42125963  .00002599  00000-0  18133-3 0  9993,2 53922  53.2185  57.7782 0001168  81.6227 278.4897 15.08834048 54741,6917.899,95.438,540.572,538.956,0.0
53922.0,STARLINK-5002,PAYLOAD,2023-09-17 11:32:47,15.08839467,0.0001172,53.2182,53.0207,79.2166,280.8958,0.0001479,2.067e-05,0.0,0 STARLINK-5002,1 53922U 22119AN  23260.48110078  .00002067  00000-0  14790-3 0  9997,2 53922  53.2182  53.0207 0001172  79.2166 280.8958 15.08839467 55329,6917.882,95.438,540.558,538.936,0.0
53922.0,STARLINK-5002,PAYLOAD,2023-09-17 17:54:19,15.08846559,0.0001099,53.2186,51.8312,74.4025,285.7088,0.00017041,2.426e-05,0.0,0 STARLINK-5002,1 53922U 22119AN  23260.74605577  .00002426  00000-0  17041-3 0  9990,2 53922  53.2186  51.8312 0001099  74.4025 285.7088 15.08846559 54940,6917.86,95.437,540.486,538.965,0.0
